SL-4 R/B                
1 39679U 14021B   26013.66831978  .00006387  00000+0  15480-3 0  9996
2 39679  51.6066 245.3328 0099398 262.0464  96.9230 15.37501919647804
ALOS-2                  
1 39766U 14029A   26013.93628078 -.00000088  00000+0 -48908-5 0  9993
2 39766  97.9202 113.3211 0001436  96.5947 263.5428 14.79478522628777
YAOGAN-29               
1 41038U 15069A   26014.00584378 -.00000214  00000+0 -19728-4 0  9994
2 41038  98.0204  42.2778 0002199 127.7661 232.3752 14.82921759547774
ASTRO-H (HITOMI)        
1 41337U 16012A   26013.62908754  .00002134  00000+0  12381-3 0  9998
2 41337  31.0012 351.7531 0009652 140.7113 219.4227 15.09588514543905
HXMT (HUIYAN)           
1 42758U 17034A   26013.93363347  .00003717  00000+0  19564-3 0  9996
2 42758  43.0159 320.9215 0033508 249.2773 110.4482 15.16698999474227
CZ-2C R/B               
1 43521U 18054D   26013.87166621  .00127805  00000+0  56856-3 0  9997
2 43521  35.1340 321.7205 0010300 120.3934 239.7821 15.82868604420139
SAOCOM 1A               
1 43641U 18076A   26013.94193057  .00000297  00000+0  43843-4 0  9993
2 43641  97.8854 202.8959 0001497  85.9510 274.1874 14.82147945393255
H-2A R/B                
1 43682U 18084L   26013.57114592  .00013295  00000+0  34568-3 0  9998
2 43682  98.8768 219.2840 0025894 213.8484 146.1105 15.38765565397294
SAOCOM 1B               
1 46265U 20059A   26013.97313109  .00000269  00000+0  40370-4 0  9998
2 46265  97.8851 202.0258 0001338  83.4599 276.6767 14.82148937290644
CSS (TIANHE)            
1 48274U 21035A   26013.85537151  .00013646  00000+0  16430-3 0  9999
2 48274  41.4652 181.5345 0011482 279.6301  80.3240 15.60488360269049
COSMOS 2550             
1 48865U 21056A   26014.00380208 -.00000174  00000+0  54767-6 0  9996
2 48865  67.1410 206.3440 0008343 269.7379  90.2819 15.33821424255073
CZ-2C R/B               
1 52794U 22058K   26013.02141274  .00016407  00000+0  27983-3 0  9996
2 52794  50.1896 243.8028 0043100 326.7511  33.0752 15.50415241201481
