CCSDS_OMM_VERS = 2.0
CREATION_DATE  = 
ORIGINATOR     = 

OBJECT_NAME    = SL-4 R/B
OBJECT_ID      = 2014-021B
CENTER_NAME    = EARTH
REF_FRAME      = TEME
TIME_SYSTEM    = UTC
MEAN_ELEMENT_THEORY = SGP/SGP4

EPOCH          = 2026-01-13T16:02:22.828992
MEAN_MOTION    = 15.37501919
ECCENTRICITY   = .0099398
INCLINATION    = 51.6066
RA_OF_ASC_NODE = 245.3328
ARG_OF_PERICENTER = 262.0464
MEAN_ANOMALY   = 96.9230

EPHEMERIS_TYPE = 0
CLASSIFICATION_TYPE = U
NORAD_CAT_ID   = 39679
ELEMENT_SET_NO = 999
REV_AT_EPOCH   = 64780
BSTAR          = .15480015E-3
MEAN_MOTION_DOT = .6387E-4
MEAN_MOTION_DDOT = 0

CCSDS_OMM_VERS = 2.0
CREATION_DATE  = 
ORIGINATOR     = 

OBJECT_NAME    = ALOS-2
OBJECT_ID      = 2014-029A
CENTER_NAME    = EARTH
REF_FRAME      = TEME
TIME_SYSTEM    = UTC
MEAN_ELEMENT_THEORY = SGP/SGP4

EPOCH          = 2026-01-13T22:28:14.659392
MEAN_MOTION    = 14.79478522
ECCENTRICITY   = .00014368
INCLINATION    = 97.9202
RA_OF_ASC_NODE = 113.3211
ARG_OF_PERICENTER = 96.5947
MEAN_ANOMALY   = 263.5428

EPHEMERIS_TYPE = 0
CLASSIFICATION_TYPE = U
NORAD_CAT_ID   = 39766
ELEMENT_SET_NO = 999
REV_AT_EPOCH   = 62877
BSTAR          = -.4890843E-5
MEAN_MOTION_DOT = -.88E-6
MEAN_MOTION_DDOT = 0

CCSDS_OMM_VERS = 2.0
CREATION_DATE  = 
ORIGINATOR     = 

OBJECT_NAME    = YAOGAN-29
OBJECT_ID      = 2015-069A
CENTER_NAME    = EARTH
REF_FRAME      = TEME
TIME_SYSTEM    = UTC
MEAN_ELEMENT_THEORY = SGP/SGP4

EPOCH          = 2026-01-14T00:08:24.902592
MEAN_MOTION    = 14.82921759
ECCENTRICITY   = .00021994
INCLINATION    = 98.0204
RA_OF_ASC_NODE = 42.2778
ARG_OF_PERICENTER = 127.7661
MEAN_ANOMALY   = 232.3752

EPHEMERIS_TYPE = 0
CLASSIFICATION_TYPE = U
NORAD_CAT_ID   = 41038
ELEMENT_SET_NO = 999
REV_AT_EPOCH   = 54777
BSTAR          = -.19727995E-4
MEAN_MOTION_DOT = -.214E-5
MEAN_MOTION_DDOT = 0

CCSDS_OMM_VERS = 2.0
CREATION_DATE  = 
ORIGINATOR     = 

OBJECT_NAME    = ASTRO-H (HITOMI)
OBJECT_ID      = 2016-012A
CENTER_NAME    = EARTH
REF_FRAME      = TEME
TIME_SYSTEM    = UTC
MEAN_ELEMENT_THEORY = SGP/SGP4

EPOCH          = 2026-01-13T15:05:53.163456
MEAN_MOTION    = 15.09588514
ECCENTRICITY   = .00096522
INCLINATION    = 31.0012
RA_OF_ASC_NODE = 351.7531
ARG_OF_PERICENTER = 140.7113
MEAN_ANOMALY   = 219.4227

EPHEMERIS_TYPE = 0
CLASSIFICATION_TYPE = U
NORAD_CAT_ID   = 41337
ELEMENT_SET_NO = 999
REV_AT_EPOCH   = 54390
BSTAR          = .12381464E-3
MEAN_MOTION_DOT = .2134E-4
MEAN_MOTION_DDOT = 0

CCSDS_OMM_VERS = 2.0
CREATION_DATE  = 
ORIGINATOR     = 

OBJECT_NAME    = HXMT (HUIYAN)
OBJECT_ID      = 2017-034A
CENTER_NAME    = EARTH
REF_FRAME      = TEME
TIME_SYSTEM    = UTC
MEAN_ELEMENT_THEORY = SGP/SGP4

EPOCH          = 2026-01-13T22:24:25.931808
MEAN_MOTION    = 15.16698999
ECCENTRICITY   = .00335087
INCLINATION    = 43.0159
RA_OF_ASC_NODE = 320.9215
ARG_OF_PERICENTER = 249.2773
MEAN_ANOMALY   = 110.4482

EPHEMERIS_TYPE = 0
CLASSIFICATION_TYPE = U
NORAD_CAT_ID   = 42758
ELEMENT_SET_NO = 999
REV_AT_EPOCH   = 47422
BSTAR          = .1956449E-3
MEAN_MOTION_DOT = .3717E-4
MEAN_MOTION_DDOT = 0

CCSDS_OMM_VERS = 2.0
CREATION_DATE  = 
ORIGINATOR     = 

OBJECT_NAME    = CZ-2C R/B
OBJECT_ID      = 2018-054D
CENTER_NAME    = EARTH
REF_FRAME      = TEME
TIME_SYSTEM    = UTC
MEAN_ELEMENT_THEORY = SGP/SGP4

EPOCH          = 2026-01-13T20:55:11.960544
MEAN_MOTION    = 15.82868604
ECCENTRICITY   = .00103008
INCLINATION    = 35.1340
RA_OF_ASC_NODE = 321.7205
ARG_OF_PERICENTER = 120.3934
MEAN_ANOMALY   = 239.7821

EPHEMERIS_TYPE = 0
CLASSIFICATION_TYPE = U
NORAD_CAT_ID   = 43521
ELEMENT_SET_NO = 999
REV_AT_EPOCH   = 42013
BSTAR          = .56855505E-3
MEAN_MOTION_DOT = .127805E-2
MEAN_MOTION_DDOT = 0

CCSDS_OMM_VERS = 2.0
CREATION_DATE  = 
ORIGINATOR     = 

OBJECT_NAME    = SAOCOM 1A
OBJECT_ID      = 2018-076A
CENTER_NAME    = EARTH
REF_FRAME      = TEME
TIME_SYSTEM    = UTC
MEAN_ELEMENT_THEORY = SGP/SGP4

EPOCH          = 2026-01-13T22:36:22.801248
MEAN_MOTION    = 14.82147945
ECCENTRICITY   = .00014971
INCLINATION    = 97.8854
RA_OF_ASC_NODE = 202.8959
ARG_OF_PERICENTER = 85.9510
MEAN_ANOMALY   = 274.1874

EPHEMERIS_TYPE = 0
CLASSIFICATION_TYPE = U
NORAD_CAT_ID   = 43641
ELEMENT_SET_NO = 999
REV_AT_EPOCH   = 39325
BSTAR          = .43842529E-4
MEAN_MOTION_DOT = .297E-5
MEAN_MOTION_DDOT = 0

CCSDS_OMM_VERS = 2.0
CREATION_DATE  = 
ORIGINATOR     = 

OBJECT_NAME    = H-2A R/B
OBJECT_ID      = 2018-084L
CENTER_NAME    = EARTH
REF_FRAME      = TEME
TIME_SYSTEM    = UTC
MEAN_ELEMENT_THEORY = SGP/SGP4

EPOCH          = 2026-01-13T13:42:27.007488
MEAN_MOTION    = 15.38765565
ECCENTRICITY   = .00258947
INCLINATION    = 98.8768
RA_OF_ASC_NODE = 219.2840
ARG_OF_PERICENTER = 213.8484
MEAN_ANOMALY   = 146.1105

EPHEMERIS_TYPE = 0
CLASSIFICATION_TYPE = U
NORAD_CAT_ID   = 43682
ELEMENT_SET_NO = 999
REV_AT_EPOCH   = 39729
BSTAR          = .34567864E-3
MEAN_MOTION_DOT = .13295E-3
MEAN_MOTION_DDOT = 0

CCSDS_OMM_VERS = 2.0
CREATION_DATE  = 
ORIGINATOR     = 

OBJECT_NAME    = SAOCOM 1B
OBJECT_ID      = 2020-059A
CENTER_NAME    = EARTH
REF_FRAME      = TEME
TIME_SYSTEM    = UTC
MEAN_ELEMENT_THEORY = SGP/SGP4

EPOCH          = 2026-01-13T23:21:18.526176
MEAN_MOTION    = 14.82148937
ECCENTRICITY   = .00013389
INCLINATION    = 97.8851
RA_OF_ASC_NODE = 202.0258
ARG_OF_PERICENTER = 83.4599
MEAN_ANOMALY   = 276.6767

EPHEMERIS_TYPE = 0
CLASSIFICATION_TYPE = U
NORAD_CAT_ID   = 46265
ELEMENT_SET_NO = 999
REV_AT_EPOCH   = 29064
BSTAR          = .40369548E-4
MEAN_MOTION_DOT = .269E-5
MEAN_MOTION_DDOT = 0

CCSDS_OMM_VERS = 2.0
CREATION_DATE  = 
ORIGINATOR     = 

OBJECT_NAME    = CSS (TIANHE)
OBJECT_ID      = 2021-035A
CENTER_NAME    = EARTH
REF_FRAME      = TEME
TIME_SYSTEM    = UTC
MEAN_ELEMENT_THEORY = SGP/SGP4

EPOCH          = 2026-01-13T20:31:44.098464
MEAN_MOTION    = 15.60488360
ECCENTRICITY   = .00114824
INCLINATION    = 41.4652
RA_OF_ASC_NODE = 181.5345
ARG_OF_PERICENTER = 279.6301
MEAN_ANOMALY   = 80.3240

EPHEMERIS_TYPE = 0
CLASSIFICATION_TYPE = U
NORAD_CAT_ID   = 48274
ELEMENT_SET_NO = 999
REV_AT_EPOCH   = 26904
BSTAR          = .16429638E-3
MEAN_MOTION_DOT = .13646E-3
MEAN_MOTION_DDOT = 0

CCSDS_OMM_VERS = 2.0
CREATION_DATE  = 
ORIGINATOR     = 

OBJECT_NAME    = COSMOS 2550
OBJECT_ID      = 2021-056A
CENTER_NAME    = EARTH
REF_FRAME      = TEME
TIME_SYSTEM    = UTC
MEAN_ELEMENT_THEORY = SGP/SGP4

EPOCH          = 2026-01-14T00:05:28.499712
MEAN_MOTION    = 15.33821424
ECCENTRICITY   = .0008343
INCLINATION    = 67.1410
RA_OF_ASC_NODE = 206.3440
ARG_OF_PERICENTER = 269.7379
MEAN_ANOMALY   = 90.2819

EPHEMERIS_TYPE = 0
CLASSIFICATION_TYPE = U
NORAD_CAT_ID   = 48865
ELEMENT_SET_NO = 999
REV_AT_EPOCH   = 25507
BSTAR          = .547668E-6
MEAN_MOTION_DOT = -.174E-5
MEAN_MOTION_DDOT = 0

CCSDS_OMM_VERS = 2.0
CREATION_DATE  = 
ORIGINATOR     = 

OBJECT_NAME    = CZ-2C R/B
OBJECT_ID      = 2022-058K
CENTER_NAME    = EARTH
REF_FRAME      = TEME
TIME_SYSTEM    = UTC
MEAN_ELEMENT_THEORY = SGP/SGP4

EPOCH          = 2026-01-13T00:30:50.060736
MEAN_MOTION    = 15.50415241
ECCENTRICITY   = .00431
INCLINATION    = 50.1896
RA_OF_ASC_NODE = 243.8028
ARG_OF_PERICENTER = 326.7511
MEAN_ANOMALY   = 33.0752

EPHEMERIS_TYPE = 0
CLASSIFICATION_TYPE = U
NORAD_CAT_ID   = 52794
ELEMENT_SET_NO = 999
REV_AT_EPOCH   = 20148
BSTAR          = .27982811E-3
MEAN_MOTION_DOT = .16407E-3
MEAN_MOTION_DDOT = 0

